ONEWEB-0267             
1 48985U 21060U   22086.25001157  .00002197  00000+0  57122-2 0  9999
2 48985  87.9191 175.8376 0002598 115.5468 241.5145 13.16593605 37856
ONEWEB-0268             
1 48986U 21060V   22086.25001157  .00003368  00000+0  87740-2 0  9990
2 48986  87.9214 175.8244 0001864 117.7310  31.6591 13.16597332 38116
ONEWEB-0269             
1 48987U 21060W   22086.25001157  .00001835  00000+0  47658-2 0  9992
2 48987  87.9197 175.8652 0001955 111.2546 125.8348 13.16598604 37894
ONEWEB-0270             
1 48988U 21060X   22086.25001157  .00003202  00000+0  83396-2 0  9992
2 48988  87.9216 175.8294 0002162 100.2055  60.4340 13.16602699 37945
ONEWEB-0271             
1 48989U 21060Y   22086.25001157  .00002173  00000+0  56476-2 0  9998
2 48989  87.9183 175.8485 0002664 109.1056 106.0609 13.16601236 37926
ONEWEB-0272             
1 48990U 21060Z   22086.25001157  .00003740  00000+0  97457-2 0  9995
2 48990  87.9204 175.8383 0002446 111.3451 354.7504 13.16597877 37887
ONEWEB-0273             
1 48991U 21060AA  22085.91667824 -.00040684  00000+0 -10691+0 0  9999
2 48991  87.9203 175.8948 0002394 103.9737 124.9800 13.16607346  3309
ONEWEB-0274             
1 48992U 21060AB  22086.25001157  .00001712  00000+0  44433-2 0  9990
2 48992  87.9175 175.8758 0002545 108.1254 139.8014 13.16597463 37897
ONEWEB-0275             
1 48993U 21060AC  22086.25001157  .00001522  00000+0  39470-2 0  9995
2 48993  87.9189 175.8435 0002248 110.2344 192.1954 13.16599907 37822
ONEWEB-0276             
1 48994U 21060AD  22086.25001157  .00003612  00000+0  94097-2 0  9994
2 48994  87.9195 175.8958 0002586 103.3572  35.5229 13.16597220 37844
ONEWEB-0277             
1 48995U 21060AE  22086.25001157  .00003666  00000+0  95506-2 0  9990
2 48995  87.9191 175.8967 0002801 109.0255 324.3289 13.16595906 37824
ONEWEB-0278             
1 48996U 21060AF  22086.25001157  .00003536  00000+0  92115-2 0  9990
2 48996  87.9247 175.7693 0002278 105.1419  22.8081 13.16602069 37974
ONEWEB-0279             
1 48997U 21060AG  22086.25001157  .00003662  00000+0  95403-2 0  9994
2 48997  87.9208 175.8275 0001951 101.6720 342.5936 13.16598255 37895
ONEWEB-0280             
1 48998U 21060AH  22086.25001157  .00002642  00000+0  68745-2 0  9991
2 48998  87.9198 175.8515 0003089 112.6068 266.2636 13.16599218 37824
ONEWEB-0281             
1 48999U 21060AJ  22086.25001157  .00001962  00000+0  50970-2 0  9997
2 48999  87.9198 175.8157 0001902 120.7969 225.0883 13.16613465 37917
ONEWEB-0282             
1 49000U 21060AK  22086.25001157  .00002426  00000+0  63108-2 0  9994
2 49000  87.9195 175.8761 0002569 103.0880 101.2245 13.16601516 37893
ONEWEB-0283             
1 49001U 21060AL  22086.25001157  .00001611  00000+0  41791-2 0  9994
2 49001  87.9184 175.8765 0002468 110.7921 148.0518 13.16598169 37908
ONEWEB-0284             
1 49002U 21060AM  22086.25001157  .00001534  00000+0  39770-2 0  9993
2 49002  87.9201 175.8742 0002432 102.9650 188.5844 13.16597513 37876
ONEWEB-0285             
1 49075U 21075A   22086.25001157 -.01776262  00000+0 -91378+0 0  9998
2 49075  87.7120 298.0290 0014934 243.5495 192.8092 14.19479058 33639
ONEWEB-0286             
1 49076U 21075B   22086.25001157  .00000013  00000+0  00000+0 0  9992
2 49076  87.9264 297.3043 0004728 274.2174 276.6198 13.28902486 33132
ONEWEB-0287             
1 49077U 21075C   22085.91667824  .00015707  00000+0  40357-1 0  9991
2 49077  87.9084 312.7107 0001921  71.1501 250.3488 13.17639912  3289
ONEWEB-0288             
1 49078U 21075D   22086.25001157  .00000017  00000+0  00000+0 0  9998
2 49078  87.7158 298.1392 0016772 246.7624  12.4021 14.10142817 33638
ONEWEB-0289             
1 49079U 21075E   22086.25001157  .00000013  00000+0  00000+0 0  9995
2 49079  87.9545 312.6103 0003237  81.2730 156.1623 13.30541631 31972
ONEWEB-0290             
1 49080U 21075F   22085.91667824  .00015197  00000+0  39050-1 0  9996
2 49080  87.9075 312.7157 0001965  73.1537 218.8402 13.17635637 31362
ONEWEB-0291             
1 49081U 21075G   22085.91667824  .00015805  00000+0  40609-1 0  9995
2 49081  87.9065 312.7265 0001859  72.3620 271.0479 13.17638044  3299
ONEWEB-0293             
1 49082U 21075H   22085.91667824  .00014551  00000+0  37394-1 0  9990
2 49082  87.9080 312.6771 0001956  72.3005 190.3726 13.17632977  3289
ONEWEB-0294             
1 49083U 21075J   22086.25001157 -.00040876  00000+0 -94993-1 0  9999
2 49083  87.9363 297.2605 0001911 100.9859 152.5904 13.24908037 33163
ONEWEB-0295             
1 49084U 21075K   22085.91667824  .00014373  00000+0  36933-1 0  9992
2 49084  87.9069 312.6550 0001756  57.6541 197.6983 13.17638300  3283
ONEWEB-0296             
1 49085U 21075L   22086.25001157  .00000013  00000+0  00000+0 0  9992
2 49085  87.9297 297.2416 0018548 278.2132 303.5361 13.29897390 33167
ONEWEB-0297             
1 49086U 21075M   22086.25001157  .00000017  00000+0  00000+0 0  9997
2 49086  87.7145 298.0826 0014196 243.0923 222.0710 14.09865586 33631
ONEWEB-0298             
1 49087U 21075N   22085.91667824  .00014192  00000+0  36470-1 0  9990
2 49087  87.9086 312.6504 0001169  83.9372 163.9880 13.17636201  3297
ONEWEB-0299             
1 49088U 21075P   22085.91667824  .00014050  00000+0  36106-1 0  9990
2 49088  87.9078 312.6083 0001436  80.2008 160.3630 13.17634711  3292
ONEWEB-0300             
1 49089U 21075Q   22086.25001157  .00000017  00000+0  00000+0 0  9990
2 49089  87.7084 298.0596 0016082 253.3870 341.1499 14.13807976 33643
ONEWEB-0301             
1 49090U 21075R   22086.25001157 -.00042340  00000+0 -96872-1 0  9993
2 49090  87.9362 297.2260 0001846 102.0279 104.6620 13.25961618 33150
ONEWEB-0302             
1 49091U 21075S   22086.25001157  .00000013  00000+0  00000+0 0  9999
2 49091  87.9357 297.2977 0000918 343.5093  56.1589 13.26947747 33147
ONEWEB-0304             
1 49092U 21075T   22085.91667824  .00015649  00000+0  40209-1 0  9999
2 49092  87.9078 312.6780 0001682  82.9219 231.1032 13.17637554  3298
ONEWEB-0305             
1 49093U 21075U   22085.91667824  .00015816  00000+0  40636-1 0  9990
2 49093  87.9083 312.7191 0001308  70.9790 279.7719 13.17640060  3294
ONEWEB-0308             
1 49094U 21075V   22085.91667824  .00032808  00000+0  74114-1 0  9999
2 49094  87.9319 297.3299 0007536 284.7043 150.0961 13.26197204  3410
ONEWEB-0309             
1 49095U 21075W   22085.91667824  .00015755  00000+0  40483-1 0  9994
2 49095  87.9089 312.7129 0002311  73.0984 255.6414 13.17636159  3285
ONEWEB-0310             
1 49096U 21075X   22086.25001157  .00000017  00000+0  00000+0 0  9998
2 49096  87.7104 298.1794 0015019 248.1703 132.8041 14.11451807 33645
ONEWEB-0311             
1 49097U 21075Y   22085.91667824  .00015470  00000+0  39751-1 0  9996
2 49097  87.9086 312.7164 0001202  79.1533 227.5193 13.17636703  3308
ONEWEB-0312             
1 49098U 21075Z   22085.91667824  .00014757  00000+0  37921-1 0  9991
2 49098  87.9094 312.6590 0001778  67.8054 202.1361 13.17636483  3323
ONEWEB-0313             
1 49099U 21075AA  22085.91667824  .00015790  00000+0  40571-1 0  9995
2 49099  87.9085 312.7192 0001782  65.8045 270.2600 13.17638499  3293
ONEWEB-0314             
1 49100U 21075AB  22085.91667824  .00014583  00000+0  37471-1 0  9992
2 49100  87.9092 312.7103 0001729  66.6379 291.6196 13.17641486  3271
ONEWEB-0315             
1 49101U 21075AC  22086.25001157  .00000017  00000+0  00000+0 0  9995
2 49101  87.7075 298.0553 0016562 247.4609 175.5960 14.12003276 33640
ONEWEB-0316             
1 49102U 21075AD  22085.91667824  .00054841  00000+0  62133-2 0  9999
2 49102  87.1949 289.6502 0016465 225.9655 339.8270 14.86032561  3566
ONEWEB-0317             
1 49103U 21075AE  22086.25001157  .00000017  00000+0  00000+0 0  9997
2 49103  87.7549 297.9364 0014956 242.9323 129.2884 14.14580154 33653
ONEWEB-0318             
1 49104U 21075AF  22085.91667824  .00053817  00000+0  60952-2 0  9990
2 49104  87.1902 289.5308 0017505 224.3297  18.5285 14.86039170  3561
ONEWEB-0319             
1 49105U 21075AG  22085.91667824  .00015393  00000+0  39554-1 0  9991
2 49105  87.9084 312.6781 0000807  76.6946 222.7153 13.17633497  3311
ONEWEB-0323             
1 49106U 21075AH  22086.25001157  .00000013  00000+0  00000+0 0  9996
2 49106  87.9302 297.2705 0002516 122.5524  56.5285 13.28374483 33143
ONEWEB-0329             
1 49107U 21075AJ  22085.91667824  .00015082  00000+0  38755-1 0  9990
2 49107  87.9080 312.6801 0001604  72.4245 212.2224 13.17635513  3295
ONEWEB-0330             
1 49108U 21075AK  22085.91667824  .00014897  00000+0  38278-1 0  9994
2 49108  87.9083 312.6947 0001692  73.7620 203.6688 13.17638568  3301
ONEWEB-0292             
1 49186U 21083A   22086.25001157 -.00004075  00000+0 -92050-2 0  9996
2 49186  87.9449 266.6375 0002556 105.2185 335.3229 13.26727344 29665
ONEWEB-0303             
1 49187U 21083B   22085.91667824  .00045653  00000+0  11522+0 0  9995
2 49187  87.9065 282.1665 0001414  83.6608   2.7522 13.18666761  3317
ONEWEB-0306             
1 49188U 21083C   22085.91667824  .00045927  00000+0  11591+0 0  9996
2 49188  87.9070 282.1506 0001106 100.2007  15.5563 13.18666429  3289
ONEWEB-0307             
1 49189U 21083D   22085.91667824  .00041122  00000+0  91510-1 0  9991
2 49189  87.9436 266.7119 0008744   4.8724 166.6807 13.27137352 29616
ONEWEB-0320             
1 49190U 21083E   22085.91667824  .00045758  00000+0  11549+0 0  9994
2 49190  87.9067 282.1724 0002003  84.9320   8.7720 13.18663516  3310
ONEWEB-0321             
1 49191U 21083F   22085.91667824  .00046361  00000+0  48040-2 0  9995
2 49191  87.2020 259.7742 0003486  45.3185 287.8897 14.89801785  3584
ONEWEB-0322             
1 49192U 21083G   22085.91667824  .00050579  00000+0  11157+0 0  9998
2 49192  87.9386 266.7516 0002222  82.5861  43.0458 13.27669007 29601
